[{"OBJECT_NAME":"STARLINK-32732","OBJECT_ID":"2025-003B","EPOCH":"2026-03-09T00:30:10.156032","MEAN_MOTION":15.27585522,"ECCENTRICITY":0.00021843,"INCLINATION":43.0035,"RA_OF_ASC_NODE":292.3743,"ARG_OF_PERICENTER":287.6864,"MEAN_ANOMALY":72.375,"EPHEMERIS_TYPE":0,"CLASSIFICATION_TYPE":"U","NORAD_CAT_ID":62488,"ELEMENT_SET_NO":999,"REV_AT_EPOCH":6645,"BSTAR":0.0010288474,"MEAN_MOTION_DOT":0.00028163,"MEAN_MOTION_DDOT":0},{"OBJECT_NAME":"GEOSCAN 1 (RS92S1)","OBJECT_ID":"2025-155E","EPOCH":"2026-03-09T22:44:05.846496","MEAN_MOTION":15.28410635,"ECCENTRICITY":0.00087099,"INCLINATION":97.4463,"RA_OF_ASC_NODE":37.403,"ARG_OF_PERICENTER":153.6429,"MEAN_ANOMALY":206.5255,"EPHEMERIS_TYPE":0,"CLASSIFICATION_TYPE":"U","NORAD_CAT_ID":64880,"ELEMENT_SET_NO":999,"REV_AT_EPOCH":6560,"BSTAR":0.00054367431,"MEAN_MOTION_DOT":0.00014993,"MEAN_MOTION_DDOT":0}]
